start=new Date('2023-02-08T00:00:00.000Z').valueOf();
sats=[{"FILE":"3777976","PERIAPSIS":"561.525","DECAY_DATE":null,"REF_FRAME":"TEME","GP_ID":"224746240","PERIOD":"95.919","ECCENTRICITY":"0.00020820","EPOCH":"2023-02-07T16:36:29.316672","REV_AT_EPOCH":"2430","MEAN_MOTION_DDOT":"0.0000000000000","OBJECT_TYPE":"PAYLOAD","RCS_SIZE":"LARGE","MEAN_ELEMENT_THEORY":"SGP4","MEAN_ANOMALY":"269.6397","ELEMENT_SET_NO":"999","COUNTRY_CODE":"US","TLE_LINE1":"1 53690U 22105AU  23038.69200598  .00002945  00000-0  23370-3 0  9996","ARG_OF_PERICENTER":"90.5066","NORAD_CAT_ID":"53690","LAUNCH_DATE":"2022-08-31","INCLINATION":"97.6586","RA_OF_ASC_NODE":"281.6141","SEMIMAJOR_AXIS":"6941.105","EPHEMERIS_TYPE":"0","SITE":"AFWTR","OBJECT_NAME":"STARLINK-4570","CENTER_NAME":"EARTH","TLE_LINE2":"2 53690  97.6586 281.6141 0002082  90.5066 269.6397 15.01273557 24304","APOAPSIS":"564.415","TIME_SYSTEM":"UTC","CLASSIFICATION_TYPE":"U","BSTAR":"0.00023370000000","MEAN_MOTION":"15.01273557","MEAN_MOTION_DOT":"0.00002945","OBJECT_ID":"2022-105AU"},{"DECAY_DATE":null,"PERIAPSIS":"561.615","FILE":"3777976","EPOCH":"2023-02-07T15:00:51.903072","ECCENTRICITY":"0.00019510","REF_FRAME":"TEME","PERIOD":"95.919","GP_ID":"224746490","OBJECT_TYPE":"PAYLOAD","MEAN_ANOMALY":"269.2037","MEAN_ELEMENT_THEORY":"SGP4","RCS_SIZE":"LARGE","MEAN_MOTION_DDOT":"0.0000000000000","REV_AT_EPOCH":"2429","NORAD_CAT_ID":"53691","COUNTRY_CODE":"US","ELEMENT_SET_NO":"999","ARG_OF_PERICENTER":"90.9411","TLE_LINE1":"1 53691U 22105AV  23038.62560073  .00004646  00000-0  36593-3 0  9998","INCLINATION":"97.6586","LAUNCH_DATE":"2022-08-31","EPHEMERIS_TYPE":"0","SITE":"AFWTR","SEMIMAJOR_AXIS":"6941.104","RA_OF_ASC_NODE":"281.5515","TLE_LINE2":"2 53691  97.6586 281.5515 0001951  90.9411 269.2037 15.01273857 24299","CENTER_NAME":"EARTH","OBJECT_NAME":"STARLINK-4560","MEAN_MOTION_DOT":"0.00004646","OBJECT_ID":"2022-105AV","CLASSIFICATION_TYPE":"U","TIME_SYSTEM":"UTC","APOAPSIS":"564.323","BSTAR":"0.00036593000000","MEAN_MOTION":"15.01273857"},{"SEMIMAJOR_AXIS":"6941.131","RA_OF_ASC_NODE":"281.5481","EPHEMERIS_TYPE":"0","SITE":"AFWTR","LAUNCH_DATE":"2022-08-31","INCLINATION":"97.6592","BSTAR":"0.00012566000000","MEAN_MOTION":"15.01265225","CLASSIFICATION_TYPE":"U","TIME_SYSTEM":"UTC","APOAPSIS":"564.522","OBJECT_ID":"2022-105AW","MEAN_MOTION_DOT":"0.00001556","CENTER_NAME":"EARTH","OBJECT_NAME":"STARLINK-4572","TLE_LINE2":"2 53692  97.6592 281.5481 0002199 107.7096 252.4369 15.01265225 24292","PERIOD":"95.919","GP_ID":"224746730","REF_FRAME":"TEME","EPOCH":"2023-02-07T14:57:51.135264","ECCENTRICITY":"0.00021990","PERIAPSIS":"561.469","FILE":"3777976","DECAY_DATE":null,"ARG_OF_PERICENTER":"107.7096","TLE_LINE1":"1 53692U 22105AW  23038.62350851  .00001556  00000-0  12566-3 0  9991","COUNTRY_CODE":"US","ELEMENT_SET_NO":"999","NORAD_CAT_ID":"53692","MEAN_MOTION_DDOT":"0.0000000000000","REV_AT_EPOCH":"2429","MEAN_ELEMENT_THEORY":"SGP4","MEAN_ANOMALY":"252.4369","RCS_SIZE":"LARGE","OBJECT_TYPE":"PAYLOAD"},{"DECAY_DATE":null,"PERIAPSIS":"561.333","FILE":"3777976","EPOCH":"2023-02-07T16:31:10.047936","ECCENTRICITY":"0.00023810","GP_ID":"224745490","PERIOD":"95.919","REF_FRAME":"TEME","MEAN_ELEMENT_THEORY":"SGP4","MEAN_ANOMALY":"265.5448","RCS_SIZE":"LARGE","OBJECT_TYPE":"PAYLOAD","MEAN_MOTION_DDOT":"0.0000000000000","REV_AT_EPOCH":"2430","NORAD_CAT_ID":"53693","ARG_OF_PERICENTER":"94.6048","TLE_LINE1":"1 53693U 22105AX  23038.68831074  .00002550  00000-0  20301-3 0  9990","COUNTRY_CODE":"US","ELEMENT_SET_NO":"999","INCLINATION":"97.6583","LAUNCH_DATE":"2022-08-31","SITE":"AFWTR","EPHEMERIS_TYPE":"0","SEMIMAJOR_AXIS":"6941.120","RA_OF_ASC_NODE":"281.6157","TLE_LINE2":"2 53693  97.6583 281.6157 0002381  94.6048 265.5448 15.01268630 24306","CENTER_NAME":"EARTH","OBJECT_NAME":"STARLINK-4566","OBJECT_ID":"2022-105AX","MEAN_MOTION_DOT":"0.00002550","BSTAR":"0.00020301000000","MEAN_MOTION":"15.01268630","CLASSIFICATION_TYPE":"U","TIME_SYSTEM":"UTC","APOAPSIS":"564.638"},{"ELEMENT_SET_NO":"999","COUNTRY_CODE":"US","TLE_LINE1":"1 53700U 22107A   23038.90344562 -.00000446  00000-0 -99252-5 0  9994","ARG_OF_PERICENTER":"84.6232","NORAD_CAT_ID":"53700","REV_AT_EPOCH":"2490","MEAN_MOTION_DDOT":"0.0000000000000","OBJECT_TYPE":"PAYLOAD","RCS_SIZE":"LARGE","MEAN_ELEMENT_THEORY":"SGP4","MEAN_ANOMALY":"275.4900","REF_FRAME":"TEME","GP_ID":"224747231","PERIOD":"95.438","EPOCH":"2023-02-07T21:40:57.701568","ECCENTRICITY":"0.00012300","FILE":"3777976","PERIAPSIS":"538.910","DECAY_DATE":null,"APOAPSIS":"540.612","CLASSIFICATION_TYPE":"U","TIME_SYSTEM":"UTC","BSTAR":"-0.00000992520000","MEAN_MOTION":"15.08834997","MEAN_MOTION_DOT":"-0.00000446","OBJECT_ID":"2022-107A","OBJECT_NAME":"STARLINK-4725","CENTER_NAME":"EARTH","TLE_LINE2":"2 53700  53.2167 257.5978 0001230  84.6232 275.4900 15.08834997 24901","RA_OF_ASC_NODE":"257.5978","SEMIMAJOR_AXIS":"6917.896","EPHEMERIS_TYPE":"0","SITE":"AFETR","LAUNCH_DATE":"2022-09-05","INCLINATION":"53.2167"},{"SEMIMAJOR_AXIS":"6917.888","RA_OF_ASC_NODE":"257.5682","SITE":"AFETR","EPHEMERIS_TYPE":"0","LAUNCH_DATE":"2022-09-05","INCLINATION":"53.2158","TIME_SYSTEM":"UTC","CLASSIFICATION_TYPE":"U","APOAPSIS":"540.477","BSTAR":"0.00009199400000","MEAN_MOTION":"15.08837439","MEAN_MOTION_DOT":"0.00001177","OBJECT_ID":"2022-107B","CENTER_NAME":"EARTH","OBJECT_NAME":"STARLINK-4711","TLE_LINE2":"2 53701  53.2158 257.5682 0001046  89.2779 270.8333 15.08837439 24909","REF_FRAME":"TEME","GP_ID":"224745991","PERIOD":"95.438","ECCENTRICITY":"0.00010460","EPOCH":"2023-02-07T21:35:38.910624","PERIAPSIS":"539.030","FILE":"3777976","DECAY_DATE":null,"COUNTRY_CODE":"US","ELEMENT_SET_NO":"999","ARG_OF_PERICENTER":"89.2779","TLE_LINE1":"1 53701U 22107B   23038.89975591  .00001177  00000-0  91994-4 0  9999","NORAD_CAT_ID":"53701","MEAN_MOTION_DDOT":"0.0000000000000","REV_AT_EPOCH":"2490","OBJECT_TYPE":"PAYLOAD","MEAN_ELEMENT_THEORY":"SGP4","MEAN_ANOMALY":"270.8333","RCS_SIZE":"LARGE"},{"TLE_LINE2":"2 53702  53.2143 242.6540 0001130  84.3590 208.7912 15.10454693 24377","CENTER_NAME":"EARTH","OBJECT_NAME":"STARLINK-4724","MEAN_MOTION_DOT":"0.00028691","OBJECT_ID":"2022-107C","CLASSIFICATION_TYPE":"U","TIME_SYSTEM":"UTC","APOAPSIS":"535.595","BSTAR":"0.00173500000000","MEAN_MOTION":"15.10454693","INCLINATION":"53.2143","LAUNCH_DATE":"2022-09-05","EPHEMERIS_TYPE":"0","SITE":"AFETR","SEMIMAJOR_AXIS":"6912.949","RA_OF_ASC_NODE":"242.6540","OBJECT_TYPE":"PAYLOAD","MEAN_ELEMENT_THEORY":"SGP4","MEAN_ANOMALY":"208.7912","RCS_SIZE":"LARGE","MEAN_MOTION_DDOT":"0.0000000000000","REV_AT_EPOCH":"2437","NORAD_CAT_ID":"53702","COUNTRY_CODE":"US","ELEMENT_SET_NO":"999","ARG_OF_PERICENTER":"84.3590","TLE_LINE1":"1 53702U 22107C   23039.00001157  .00028691  00000-0  17350-2 0  9994","DECAY_DATE":null,"PERIAPSIS":"534.033","FILE":"3777810","EPOCH":"2023-02-08T00:00:00.999648","ECCENTRICITY":"0.00011300","REF_FRAME":"TEME","GP_ID":"224717237","PERIOD":"95.336"},{"NORAD_CAT_ID":"53703","ARG_OF_PERICENTER":"94.7247","TLE_LINE1":"1 53703U 22107D   23038.91545496  .00002626  00000-0  18299-3 0  9997","COUNTRY_CODE":"US","ELEMENT_SET_NO":"999","MEAN_ANOMALY":"265.3855","MEAN_ELEMENT_THEORY":"SGP4","RCS_SIZE":"LARGE","OBJECT_TYPE":"PAYLOAD","MEAN_MOTION_DDOT":"0.0000000000000","REV_AT_EPOCH":"2490","EPOCH":"2023-02-07T21:58:15.308544","ECCENTRICITY":"0.00009610","GP_ID":"224746491","PERIOD":"95.437","REF_FRAME":"TEME","DECAY_DATE":null,"PERIAPSIS":"539.070","FILE":"3777976","OBJECT_ID":"2022-107D","MEAN_MOTION_DOT":"0.00002626","BSTAR":"0.00018299000000","MEAN_MOTION":"15.08843505","CLASSIFICATION_TYPE":"U","TIME_SYSTEM":"UTC","APOAPSIS":"540.399","TLE_LINE2":"2 53703  53.2148 257.6741 0000961  94.7247 265.3855 15.08843505 24902","CENTER_NAME":"EARTH","OBJECT_NAME":"STARLINK-4731","SITE":"AFETR","EPHEMERIS_TYPE":"0","SEMIMAJOR_AXIS":"6917.870","RA_OF_ASC_NODE":"257.6741","INCLINATION":"53.2148","LAUNCH_DATE":"2022-09-05"},{"EPHEMERIS_TYPE":"0","SITE":"AFETR","RA_OF_ASC_NODE":"258.2498","SEMIMAJOR_AXIS":"6917.864","INCLINATION":"53.2159","LAUNCH_DATE":"2022-09-05","OBJECT_ID":"2022-107E","MEAN_MOTION_DOT":"0.00002467","BSTAR":"0.00017301000000","MEAN_MOTION":"15.08845264","APOAPSIS":"540.557","TIME_SYSTEM":"UTC","CLASSIFICATION_TYPE":"U","TLE_LINE2":"2 53704  53.2159 258.2498 0001196  83.3335 276.7793 15.08845264 24736","OBJECT_NAME":"STARLINK-4714","CENTER_NAME":"EARTH","EPOCH":"2023-02-07T21:30:27.987264","ECCENTRICITY":"0.00011960","GP_ID":"224746731","PERIOD":"95.437","REF_FRAME":"TEME","DECAY_DATE":null,"FILE":"3777976","PERIAPSIS":"538.902","NORAD_CAT_ID":"53704","TLE_LINE1":"1 53704U 22107E   23038.89615726  .00002467  00000-0  17301-3 0  9995","ARG_OF_PERICENTER":"83.3335","ELEMENT_SET_NO":"999","COUNTRY_CODE":"US","RCS_SIZE":"LARGE","MEAN_ANOMALY":"276.7793","MEAN_ELEMENT_THEORY":"SGP4","OBJECT_TYPE":"PAYLOAD","REV_AT_EPOCH":"2473","MEAN_MOTION_DDOT":"0.0000000000000"},{"CENTER_NAME":"EARTH","OBJECT_NAME":"STARLINK-4717","TLE_LINE2":"2 53705  53.2152 258.2314 0001153  92.1000 268.0124 15.08829420 24892","CLASSIFICATION_TYPE":"U","TIME_SYSTEM":"UTC","APOAPSIS":"540.575","MEAN_MOTION":"15.08829420","BSTAR":"-0.00008994700000","MEAN_MOTION_DOT":"-0.00001719","OBJECT_ID":"2022-107F","LAUNCH_DATE":"2022-09-05","INCLINATION":"53.2152","SEMIMAJOR_AXIS":"6917.913","RA_OF_ASC_NODE":"258.2314","SITE":"AFETR","EPHEMERIS_TYPE":"0","MEAN_MOTION_DDOT":"0.0000000000000","REV_AT_EPOCH":"2489","OBJECT_TYPE":"PAYLOAD","MEAN_ANOMALY":"268.0124","MEAN_ELEMENT_THEORY":"SGP4","RCS_SIZE":"LARGE","COUNTRY_CODE":"US","ELEMENT_SET_NO":"999","ARG_OF_PERICENTER":"92.1000","TLE_LINE1":"1 53705U 22107F   23038.89247551 -.00001719  00000-0 -89947-4 0  9990","NORAD_CAT_ID":"53705","PERIAPSIS":"538.980","FILE":"3777976","DECAY_DATE":null,"REF_FRAME":"TEME","GP_ID":"224745491","PERIOD":"95.438","ECCENTRICITY":"0.00011530","EPOCH":"2023-02-07T21:25:09.884064"}];
